{
  "type": "FeatureCollection",
  "features": [
    {
      "type": "Feature",
      "properties": {
        "norad_id": 66575,
        "name": "STARLINK-35810",
        "group": "last-30-days",
        "lat": 42.17205293307765,
        "lon": 148.21541621677278,
        "alt_km": 392.4431526367007,
        "timestamp": "2025-12-21T03:56:49.614120+00:00",
        "meta_object_name": "STARLINK-35810",
        "meta_object_id": "2025-268U",
        "meta_epoch": "2025-12-20T20:00:01.999008",
        "meta_mean_motion": 15.56360807,
        "meta_eccentricity": 0.000158,
        "meta_inclination": 43.0008,
        "meta_ra_of_asc_node": 73.7397,
        "meta_arg_of_pericenter": 264.4015,
        "meta_mean_anomaly": 118.1821,
        "meta_ephemeris_type": 0,
        "meta_classification_type": "U",
        "meta_norad_cat_id": 66575,
        "meta_element_set_no": 999,
        "meta_rev_at_epoch": 596,
        "meta_bstar": 0.00077642,
        "meta_mean_motion_dot": 0.0005625,
        "meta_mean_motion_ddot": 0,
        "tle_line1": "1 66575U 25268U   25354.83335647  .00056250  00000+0  77642-3 0  9996",
        "tle_line2": "2 66575  43.0008  73.7397 0001580 264.4015 118.1821 15.56360807  5961"
      },
      "geometry": {
        "type": "Point",
        "coordinates": [
          148.21541621677278,
          42.17205293307765
        ]
      }
    },
    {
      "type": "Feature",
      "properties": {
        "norad_id": 66576,
        "name": "STARLINK-35814",
        "group": "last-30-days",
        "lat": 42.45405615545707,
        "lon": 150.81882644651992,
        "alt_km": 392.5004298967342,
        "timestamp": "2025-12-21T03:56:49.614129+00:00",
        "meta_object_name": "STARLINK-35814",
        "meta_object_id": "2025-268V",
        "meta_epoch": "2025-12-20T20:00:01.999008",
        "meta_mean_motion": 15.56478138,
        "meta_eccentricity": 0.0001642,
        "meta_inclination": 43.0005,
        "meta_ra_of_asc_node": 73.7354,
        "meta_arg_of_pericenter": 265.9765,
        "meta_mean_anomaly": 118.4933,
        "meta_ephemeris_type": 0,
        "meta_classification_type": "U",
        "meta_norad_cat_id": 66576,
        "meta_element_set_no": 999,
        "meta_rev_at_epoch": 596,
        "meta_bstar": -0.0020214,
        "meta_mean_motion_dot": -0.00144736,
        "meta_mean_motion_ddot": 0,
        "tle_line1": "1 66576U 25268V   25354.83335647 -.00144736  00000+0 -20214-2 0  9998",
        "tle_line2": "2 66576  43.0005  73.7354 0001642 265.9765 118.4933 15.56478138  5963"
      },
      "geometry": {
        "type": "Point",
        "coordinates": [
          150.81882644651992,
          42.45405615545707
        ]
      }
    },
    {
      "type": "Feature",
      "properties": {
        "norad_id": 66577,
        "name": "STARLINK-35815",
        "group": "last-30-days",
        "lat": 42.67541791233654,
        "lon": 153.418854373031,
        "alt_km": 392.49364229837283,
        "timestamp": "2025-12-21T03:56:49.614139+00:00",
        "meta_object_name": "STARLINK-35815",
        "meta_object_id": "2025-268W",
        "meta_epoch": "2025-12-20T20:00:01.999008",
        "meta_mean_motion": 15.56490938,
        "meta_eccentricity": 0.0001667,
        "meta_inclination": 43.0009,
        "meta_ra_of_asc_node": 73.7301,
        "meta_arg_of_pericenter": 266.094,
        "meta_mean_anomaly": 120.2988,
        "meta_ephemeris_type": 0,
        "meta_classification_type": "U",
        "meta_norad_cat_id": 66577,
        "meta_element_set_no": 999,
        "meta_rev_at_epoch": 596,
        "meta_bstar": -0.0023288,
        "meta_mean_motion_dot": -0.00166322,
        "meta_mean_motion_ddot": 0,
        "tle_line1": "1 66577U 25268W   25354.83335647 -.00166322  00000+0 -23288-2 0  9998",
        "tle_line2": "2 66577  43.0009  73.7301 0001667 266.0940 120.2988 15.56490938  5967"
      },
      "geometry": {
        "type": "Point",
        "coordinates": [
          153.418854373031,
          42.67541791233654
        ]
      }
    },
    {
      "type": "Feature",
      "properties": {
        "norad_id": 66578,
        "name": "STARLINK-35743",
        "group": "last-30-days",
        "lat": 38.250131785297135,
        "lon": 129.60791667974448,
        "alt_km": 407.28804162047254,
        "timestamp": "2025-12-21T03:56:49.614148+00:00",
        "meta_object_name": "STARLINK-35743",
        "meta_object_id": "2025-268X",
        "meta_epoch": "2025-12-19T13:01:43.293216",
        "meta_mean_motion": 15.50763067,
        "meta_eccentricity": 6.51e-05,
        "meta_inclination": 42.9979,
        "meta_ra_of_asc_node": 81.316,
        "meta_arg_of_pericenter": 284.5171,
        "meta_mean_anomaly": 75.5617,
        "meta_ephemeris_type": 0,
        "meta_classification_type": "U",
        "meta_norad_cat_id": 66578,
        "meta_element_set_no": 999,
        "meta_rev_at_epoch": 568,
        "meta_bstar": 0.0024134,
        "meta_mean_motion_dot": 0.0014484,
        "meta_mean_motion_ddot": 0,
        "tle_line1": "1 66578U 25268X   25353.54286219  .00144840  00000+0  24134-2 0  9996",
        "tle_line2": "2 66578  42.9979  81.3160 0000651 284.5171  75.5617 15.50763067  5683"
      },
      "geometry": {
        "type": "Point",
        "coordinates": [
          129.60791667974448,
          38.250131785297135
        ]
      }
    },
    {
      "type": "Feature",
      "properties": {
        "norad_id": 66579,
        "name": "STARLINK-35868",
        "group": "last-30-days",
        "lat": 42.93771714071865,
        "lon": 158.62708666158989,
        "alt_km": 392.45746254434835,
        "timestamp": "2025-12-21T03:56:49.614157+00:00",
        "meta_object_name": "STARLINK-35868",
        "meta_object_id": "2025-268Y",
        "meta_epoch": "2025-12-20T20:00:01.999008",
        "meta_mean_motion": 15.56488445,
        "meta_eccentricity": 0.0001671,
        "meta_inclination": 43.0012,
        "meta_ra_of_asc_node": 73.7215,
        "meta_arg_of_pericenter": 267.9562,
        "meta_mean_anomaly": 122.2689,
        "meta_ephemeris_type": 0,
        "meta_classification_type": "U",
        "meta_norad_cat_id": 66579,
        "meta_element_set_no": 999,
        "meta_rev_at_epoch": 596,
        "meta_bstar": -0.0022688,
        "meta_mean_motion_dot": -0.00162119,
        "meta_mean_motion_ddot": 0,
        "tle_line1": "1 66579U 25268Y   25354.83335647 -.00162119  00000+0 -22688-2 0  9993",
        "tle_line2": "2 66579  43.0012  73.7215 0001671 267.9562 122.2689 15.56488445  5962"
      },
      "geometry": {
        "type": "Point",
        "coordinates": [
          158.62708666158989,
          42.93771714071865
        ]
      }
    },
    {
      "type": "Feature",
      "properties": {
        "norad_id": 66580,
        "name": "STARLINK-35872",
        "group": "last-30-days",
        "lat": 39.80363042918073,
        "lon": 135.22046314532213,
        "alt_km": 406.7396997582746,
        "timestamp": "2025-12-21T03:56:49.614166+00:00",
        "meta_object_name": "STARLINK-35872",
        "meta_object_id": "2025-268Z",
        "meta_epoch": "2025-12-19T14:33:26.953344",
        "meta_mean_motion": 15.50873267,
        "meta_eccentricity": 0.0002511,
        "meta_inclination": 42.9993,
        "meta_ra_of_asc_node": 80.9317,
        "meta_arg_of_pericenter": 162.1716,
        "meta_mean_anomaly": 197.9233,
        "meta_ephemeris_type": 0,
        "meta_classification_type": "U",
        "meta_norad_cat_id": 66580,
        "meta_element_set_no": 999,
        "meta_rev_at_epoch": 569,
        "meta_bstar": 0.0027444,
        "meta_mean_motion_dot": 0.00165853,
        "meta_mean_motion_ddot": 0,
        "tle_line1": "1 66580U 25268Z   25353.60656196  .00165853  00000+0  27444-2 0  9995",
        "tle_line2": "2 66580  42.9993  80.9317 0002511 162.1716 197.9233 15.50873267  5692"
      },
      "geometry": {
        "type": "Point",
        "coordinates": [
          135.22046314532213,
          39.80363042918073
        ]
      }
    },
    {
      "type": "Feature",
      "properties": {
        "norad_id": 66581,
        "name": "STARLINK-35744",
        "group": "last-30-days",
        "lat": 42.96014125601833,
        "lon": 163.86940711804363,
        "alt_km": 392.4539191146923,
        "timestamp": "2025-12-21T03:56:49.614176+00:00",
        "meta_object_name": "STARLINK-35744",
        "meta_object_id": "2025-268AA",
        "meta_epoch": "2025-12-20T20:00:01.999008",
        "meta_mean_motion": 15.56491458,
        "meta_eccentricity": 0.0001671,
        "meta_inclination": 43.0001,
        "meta_ra_of_asc_node": 73.712,
        "meta_arg_of_pericenter": 266.0441,
        "meta_mean_anomaly": 128.0194,
        "meta_ephemeris_type": 0,
        "meta_classification_type": "U",
        "meta_norad_cat_id": 66581,
        "meta_element_set_no": 999,
        "meta_rev_at_epoch": 592,
        "meta_bstar": -0.002336,
        "meta_mean_motion_dot": -0.00166832,
        "meta_mean_motion_ddot": 0,
        "tle_line1": "1 66581U 25268AA  25354.83335647 -.00166832  00000+0 -23360-2 0  9990",
        "tle_line2": "2 66581  43.0001  73.7120 0001671 266.0441 128.0194 15.56491458  5923"
      },
      "geometry": {
        "type": "Point",
        "coordinates": [
          163.86940711804363,
          42.96014125601833
        ]
      }
    }
  ]
}